#dP2023 10 15 12  0  0.00000000      96 __u+U ITR00 EXT  IAC
## 2284  43200.00000000   900.00000000 60232 0.5000000000000
+  119   C06C07C08C09C10C11C12C13C14C16C19C20C21C22C23C24C25
+        C26C27C28C29C30C32C33C34C35C36C37C38C39C40C41C42C43
+        C44C45C46E02E03E04E05E07E08E09E10E11E12E13E14E15E19
+        E21E24E25E26E27E30E31E33E34E36G01G02G03G04G05G06G07
+        G08G09G10G11G12G13G14G15G16G17G18G19G20G21G22G23G24
+        G25G26G27G28G29G30G31G32J02J03J04R01R02R03R04R05R07
+        R08R09R11R12R13R14R15R16R17R18R19R20R21R22R24R25R26
++         9  8 10  8 10  9  9 10 10  8  7  9  8  8  7  7  7
++         7 10  9  8  9  9  9  8  8  6  8  9 10  7  8  9  8
++         9  7  7  7  7  7  6  7  6  7  9  7  9  9  6  7  6
++         9  8  8  8  9  8  8  8  7  7 10  9  8  8  8 10  7
++         7  6  6 10  8  7  7  7  6  7  7  9  7  0  6  7  8
++         8  7  7  7  6  7  8  8 10 11  9 10  8  9  7  7  9
++         7  7  7  7  9  8  7  9  8  7  9  9  9  7  7  8  9
%c M  cc GPS ccc cccc cccc cccc cccc ccccc ccccc ccccc ccccc
%c cc cc ccc ccc cccc cccc cccc cccc ccccc ccccc ccccc ccccc
%f  0.0000000  0.000000000  0.00000000000  0.000000000000000
%f  0.0000000  0.000000000  0.00000000000  0.000000000000000
%i    0    0    0    0      0      0      0      0         0
%i    0    0    0    0      0      0      0      0         0
/* IAC                                ULTRA-RAPID PREDICTION
/* S/V CLOCKS ARE ALIGNED TO GNSS TIME                      
/* G:C1WC2W R:C1PC2P E:C1XC5X C:C2IC6I J:C1CC2S             
/* PCV:IGS20_2280 OL/AL:FES2004  NONE     YN ORB:CoN CLK:CoN
*  2023 10 16 10 45  0.00000000
PC06 -14239.181363  25849.296346  30035.042415     57.257086
PC07 -10751.762963  40466.705860   5911.729521   -166.734538
PC08    249.834627  25735.451305 -33347.488847    293.730403
PC09  -6215.892499  25487.468850  33322.098271     34.767640
PC10  -4717.923155  42180.530308  -1031.084453     17.068355
PC11  16785.510692   6842.969789 -21135.179183    206.320373
PC12  -2124.252602  17563.536918 -21541.217812    895.526190
PC13   5972.019695  29304.848833 -29447.629375    368.345635
PC14  12784.855419  16545.100120  18511.154927    597.541069
PC16 -20072.563578  24932.081826  27529.410574   -128.452230
PC19 -15297.352934  -6240.247896 -22472.960699   -972.143438
PC20  -9023.151224 -22948.110371 -13042.370792    198.961969
PC21  -3333.606144  27229.160888  -5165.449859   -969.407002
PC22 -13163.075277  15010.381335 -19517.734342   -264.303538
PC23  19953.948932  -4421.311271 -18992.375954   -843.436927
PC24  16101.700002  19239.787088  12178.029386    499.461095
PC25  25721.527190   9248.652553  -5572.907613    234.052214
PC26  -1357.509382  17170.474287  21934.545352   -192.492258
PC27  10650.441336 -19590.016265  16766.298565    214.208984
PC28  23240.835681 -15254.496521   2397.544883    161.197223
PC29 -22982.204948   1363.642837  15771.477968    188.434532
PC30  -8232.031289 -13738.358086  22848.105514     -6.611507
PC32   3208.417498 -27207.385487   5300.436308   -530.046324
PC33  15351.253735   6302.502118  22431.314395   -953.949707
PC34   9714.397702  12845.402073 -22798.316139    282.249620
PC35 -22615.032762  16139.139480  -2443.994235    524.103652
PC36 -25443.564887 -10439.797741   4795.546510   -177.414526
PC37   2512.674317 -16839.326388 -22103.518830   -855.151457
PC38  -8418.035912  22363.448422 -34688.513515    111.471892
PC39 -23960.231072  25300.451488  23609.846846     -5.271625
PC40 -16530.961806  37941.246194   8792.277098    -40.338909
PC41  13418.216750 -14275.095693  19915.146731   -872.905252
PC42   8302.656248  23915.954753  11797.239819   -520.720340
PC43  22631.276803   -510.579647 -16335.301076     44.178573
PC44  -9987.308494  20085.613197 -16595.005405    263.274106
PC45 -19551.296380   4730.365461  19353.163718    -36.617181
PC46 -17113.422511 -19001.640489 -11226.871578    -92.281215
PE02  17680.419447  22388.191737  -7860.089760     70.641290
PE03  11647.681848  12974.746496  23909.453185    -65.411730
PE04 -20885.043957   7224.694881 -19692.929628   -235.508584
PE05  -4311.850270  25582.030909  14247.390336     27.952731
PE07  18036.727955 -23086.626916   4199.317106    -82.360466
PE08  20676.625267  -6782.575782  20054.235676   -162.213529
PE09 -18066.820944  23045.751767  -4365.740921   -193.305389
PE10 -26732.259728   6172.988227 -11135.905156   -571.558601
PE11 -19103.108931  11736.363747 -19333.494274   3096.350699
PE12 -29522.571583    171.019785  -2095.744001   -738.670166
PE13  19735.036890 -11379.543216  18902.660073    -19.671038
PE14  18354.119096   6264.132695 -21990.889267    370.166878
PE15  29552.407160     81.638560   1642.955596    -61.626962
PE19  -9654.540914 -15180.850026 -23506.999264  -1414.285593
PE21  -6393.292501 -27119.041853  -9996.931871   -558.731895
PE24  -9731.336953  15826.516258  23028.939561   -378.585079
PE25   6093.095752  27057.053334  10342.341875     -3.325147
PE26  -2285.742588 -16180.203644  24687.164318    252.808022
PE27   9227.475177 -16348.238144 -22882.570309   -175.857203
PE30  19356.778873   4372.885332 -21962.787754   -584.058416
PE31 -19248.214205  -3939.760726  22152.216365     -7.753311
PE33 -21448.375451 -11608.092280  16789.673531      0.441324
PE34  21934.719878  11301.434393 -16338.818957    -72.676342
PE36   1467.671968  16014.019446 -24846.901510   -130.646959
PG01  12476.571770  13683.736242 -19513.742448    163.678062
PG02   5841.053503  14344.704991 -21100.244020   -541.368204
PG03  12300.301318  23601.891795    306.115408    -75.649833
PG04   5388.546320  16598.154084  19991.956665    185.941924
PG05  -3072.331980 -22956.039656  12735.672200   -146.709812
PG06  23004.233677  -6368.541520  11817.275338    529.360189
PG07  25128.344898   6458.721754   7231.373545     38.997166
PG08  -2064.642315  22380.704892 -13904.194020   -147.418479
PG09  13422.076288   7305.256295  21637.838761    -30.916207
PG10 -15602.483452    917.813846 -21341.950112    -57.550078
PG11  12386.175718 -12557.345677  19858.718388   -417.501967
PG12  -9049.541077 -24943.192084  -2170.642971   -436.454339
PG13  12003.076029 -22250.053341  -7974.833710    584.601015
PG14  17247.529372   2689.703971 -20040.791405    215.543195
PG15  -1824.515276 -22252.371250 -14699.924761     87.622669
PG16  -3817.997468  20301.672493  16119.353564   -438.257675
PG17  19439.854072  -8296.922995 -15719.533736    723.815766
PG18 -25744.584627  -5010.965091   4781.439477   -450.418710
PG19  20029.835240 -14425.798788  -9528.862357    385.685813
PG20   5792.818457 -16316.597578  20231.982586    406.549189
PG21   2561.800553  14831.378995 -21406.755158    146.641555
PG22  14145.541376  -4872.030161 -21484.471219    101.917934
PG23 -18318.962421 -11766.130274 -15328.913770     83.499983
PG24  -8055.730997 -15059.126124 -20813.615407   -347.421583
PG25 -17050.978933 -18243.123784   9113.533977    472.962642
PG26 -10433.593529  12508.967907  20802.207564    222.870749
PG27 -12274.692030  23129.877629  -3038.917932    -55.916497
PG28 -23910.266171   6353.033274   9643.940009    -26.549140
PG29 -12476.668117  -8191.700862  21928.460451   -610.076164
PG30  26496.142422   -825.992346  -3104.989196   -478.075052
PG31 -17805.173626  10555.649833  16678.587955   -224.710879
PG32 -18987.215552  12481.072956 -13398.666808   -573.362110
PJ02 -25723.344569  24328.998491  27935.204784     -5.784783
PJ03 -34881.658330  18357.271350 -10347.413306     -5.257934
PJ04 -20250.550002  31057.861395 -15014.524259     71.248790
PR01  -5498.342732  24622.559718  -3792.641137     67.785346
PR02   2607.490992  21279.832194  13801.003991    -22.390903
PR03   9902.227774   5782.161075  22817.679220     87.169046
PR04  11373.926549 -12406.233410  19196.844119    207.073688
PR05   6965.350876 -24002.859630   5185.746287    120.707949
PR07 -10057.152850  -5008.718811 -22871.690208     66.962570
PR08 -11330.684027  12636.193086 -18974.660012    -72.958287
PR09 -15030.014447 -18062.098491  -9808.244085    147.923955
PR11 -15902.927703   -775.676344  19934.732800   -198.248942
PR12   -259.705485  13325.987656  21772.266280     32.402695
PR13  13444.607726  18173.499273  11802.209247    -40.259831
PR14  20972.117231  12528.183105  -7360.016676     25.405778
PR15  15125.863086   -255.918432 -20518.465937     85.333622
PR16    362.356707 -13033.098804 -21906.786444     19.698763
PR17  20730.812144   -215.569722 -14813.794061     26.242107
PR18  23977.344124  -8715.654134    964.070942    107.108290
PR19  16512.160030 -12202.047056  15131.765891   -251.103413
PR20  -4530.150570  -9429.891731  23274.779838   -101.900080
PR21 -21219.613574    602.936246  14174.251173    -45.971822
PR22 -24012.953851   8381.281538  -1882.017899     88.930906
PR24   5671.704395   9450.541216 -22981.310055    -28.424132
PR25 -20822.477799   -868.272612  14735.377803     27.778325
PR26 -11316.738131  12245.379995 -19296.207099    -20.457237
EOF
